#dP2021  3 26  0  0  0.00000000      96 __u+U ITR00 FIT  IAC
## 2150 432000.00000000   900.00000000 59299 0.0000000000000
+  117   C06C07C08C09C10C11C12C13C14C16C19C20C21C22C23C24C25
+        C26C27C28C29C30C32C33C34C35C36C37C38C39C40C41C42C43
+        C44C45C46E01E02E03E04E05E07E08E09E11E12E13E14E15E18
+        E19E21E24E25E26E27E30E31E33E36G01G02G03G04G05G06G07
+        G08G09G10G11G12G13G14G15G16G17G18G19G20G21G22G23G24
+        G25G26G27G28G29G30G31G32J01J02J03R01R02R03R04R05R07
+        R08R09R11R12R13R14R15R16R17R18R19R20R21R22R24  0  0
++         8  8  6 10  8 11  9  9  8  8  7  8  6  7  6  8  6
++         7  8  6  7  7  7  6  7  6  7  8  9  9  9  6  8  6
++         8  7  7  5  7  6  6  6  6  5  5  7  7  5  7  6  6
++         7  6  7  6  6  6  7  7  5  6  6  5  7  5  8  6  5
++         6  6  6  7  6  7  5  5  6  7  6  7  7  7  5  6  6
++         6  6  7  5  6  5  5  6  9 10  7  7  6  6  7  8  6
++         7  6  7  9  5  6  8  7  7  6  7  7  5  7  7  0  0
%c M  cc GPS ccc cccc cccc cccc cccc ccccc ccccc ccccc ccccc
%c cc cc ccc ccc cccc cccc cccc cccc ccccc ccccc ccccc ccccc
%f  0.0000000  0.000000000  0.00000000000  0.000000000000000
%f  0.0000000  0.000000000  0.00000000000  0.000000000000000
%i    0    0    0    0      0      0      0      0         0
%i    0    0    0    0      0      0      0      0         0
/* INFORMATION & ANALYSIS CENTER (IAC)      ULTRA-RAPID DATA
/* S/V CLOCKS ARE ALIGNED TO GNSS TIME                      
/* G:C1WC2W R:C1PC2P E:C1XC5X C:C2IC6I J:C1CC2S             
/* PCV:IGS14_2134 OL/AL:FES2004  NONE     YN ORB:CoN CLK:CoN
*  2021 03 26 16  0  0.00000000
PC06 -19871.141897  37457.612059   1876.063744    215.027002
PC07  -9750.925357  27068.259344 -30428.703970    -56.447996
PC08 -22236.212218  19730.021870  29850.065235   -896.798352
PC09 -10454.964900  38813.991311 -13141.598429    640.906831
PC10   4065.057039  34517.087528 -23366.900132    -65.838863
PC11 -19785.029903   8687.940687 -17577.661921   -846.117481
PC12 -11804.430620  -9847.017523 -23255.657680    894.535360
PC13  -6405.360273  23119.801825  34743.595023    196.091777
PC14 -17822.102704  -1953.909880  21429.133001    307.847270
PC16 -16627.796251  38789.083920  -2379.803881   -752.640119
PC19  13371.810011  -8622.503228 -22895.475480    775.796909
PC20  19060.317659  10539.132205 -17408.549313   -938.229968
PC21 -13589.577680 -24357.326682   1246.881047   -906.084672
PC22   -211.752506 -23379.903573 -15247.915876   -933.867987
PC23  -7031.960237  15468.559387 -22136.576318   -880.594485
PC24 -26798.449276  -5425.560744   5498.854002   -794.069571
PC25 -23607.586411   8162.467297 -12427.191400   -942.372960
PC26 -14996.816590 -13960.826706  18920.065131    929.933899
PC27   4842.048632  18260.559944  20529.032640    505.060173
PC28 -10567.423260  24804.214782   7201.234813    -93.786296
PC29  19102.901582 -17527.684075  10309.140507    370.275393
PC30  17221.748833    930.417958  21929.141277    455.410303
PC32  13729.034080  24259.028388  -1184.830163   -922.188115
PC33 -13432.893240   8603.471261  22907.759501   -944.163464
PC34 -17575.818376   -203.899950 -21689.441006   -710.179173
PC35   9895.899509 -25141.553715  -6901.732503   -356.531732
PC36  24013.763567  -7407.869821  12155.331612   -737.377331
PC37  13856.318059  14557.172149 -19356.427568   -883.183531
PC38 -18551.441268  22741.656743  30261.730632    138.278866
PC39 -13208.796727  39976.699314  -3394.038563     29.746748
PC40   1765.455228  32817.980790 -26328.471544 999999.999999
PC41    -26.643368  23240.693888  15503.420125   -935.619206
PC42 -19160.120538 -11193.538081  16979.283636   -934.585122
PC43 -19354.222638  17047.372819 -10698.078411 999999.999999
PC44  -5439.368186 -18252.087706 -20390.145639    105.667421
PC45   6925.173022 -15379.729410  22233.806132    397.078880
PC46  27117.829447   4768.212318  -4664.390629    345.133470
PE01  21836.063379  18493.988219  -7594.121875  -1073.726782
PE02 -21900.080739 -18438.478781   7476.482852    207.742145
PE03 -11692.019582 -21695.888235  16405.438757   -413.186956
PE04  17076.424226   1372.672241 -24131.159506   -737.024670
PE05    640.910143 -29574.862591  -1070.528941   -293.902491
PE07 -12485.316989  20123.938090  17759.810290   -517.697008
PE08 -16951.296581   -932.435275  24252.464659   6027.268190
PE09  12187.306897 -20350.750906 -17708.665092   5721.865968
PE11  23150.284413 -17688.416035  -5164.548329   6163.589409
PE12  25686.392684  -4658.863702  13933.929096   5290.978675
PE13 -23337.120667  17588.298137   4763.173527    414.116076
PE14  15478.863540   -258.681056  18093.162015  -1375.226179
PE15 -25674.145668   4839.995370 -13914.681854    822.682707
PE18 -19680.662132  -5808.955941 -24906.587748  -1504.077051
PE19  10433.549021  23411.479270 -14801.652641    236.546134
PE21   5044.410234  19641.905381 -21570.078137   -655.793626
PE24  16019.917337  -8895.212276  23235.770995   -813.510593
PE25  -4834.724443 -19588.220761  21656.016419   -529.409063
PE26  -6522.651555  19900.871366  20927.855891   1997.171634
PE27 -15293.058553   9489.742655 -23498.723834      2.192160
PE30 -26641.835645  -6931.952789 -10867.397641   3075.687981
PE31  26524.342839   6180.990022  11604.768333   -479.547118
PE33  12879.630105  10759.393421  24389.713147   -466.910763
PE36   7252.410877 -19956.077002 -20609.405366   -185.197767
PG01    128.272384 -15353.675465 -21875.224262    732.034736
PG02 -20912.647662  14735.435259   7865.774226   -589.844353
PG03  -9310.790811 -20835.672792 -13758.187025   -119.005338
PG04    629.388824 -25440.775477   7515.450432   -188.432990
PG05  -7486.845167  13486.759700  21459.823896    -37.306988
PG06 -25630.615990   5515.203293  -4390.622078      3.022297
PG07 -15186.678807  -9934.502841  19890.351622    102.441775
PG08   5286.038803 -25845.978403    753.215374    -15.194219
PG09  -8043.750179 -19456.507368  16118.757285   -334.188348
PG10  22319.175710   9522.499806 -10990.657321    -89.067270
PG11   3133.445168 -21344.589778 -16173.744938     12.004934
PG12   4809.606895  20691.074112 -16293.155916    -19.367580
PG13 -13213.810930  21445.998544   8080.264752    112.403978
PG14 -21867.167759 -11022.284873 -10321.359516     99.253138
PG15  -2215.485591  26267.993574    -27.403597   -160.485521
PG16  11145.392478  -9767.161387  21801.472299   -299.970255
PG17 -14369.196640  -2443.524265 -21776.313126    416.103649
PG18  17942.049153   7478.920745  18120.581629    351.210187
PG19 -16227.797069   6409.703866 -20278.832010    -21.235255
PG20  19262.313226  17578.007131   5672.126940    523.813315
PG21   8479.011778 -17032.007915 -17613.038881    106.184756
PG22  -1241.547900 -18303.077208 -19067.880025   -652.056971
PG23  20730.653314  16622.302503   -806.393015    116.338200
PG24  -5259.871300  17592.504719 -19301.449001      0.570486
PG25  16738.808433  20073.598024  -5751.724100    106.429267
PG26  18630.420711  -2506.792307  18808.733366     63.499304
PG27  12196.212198 -20096.984298  11822.540968   -101.238814
PG28 -20886.774585 -10144.960070 -12160.772769    596.329399
PG29   6340.485275  19331.878518  17006.780006   -318.868034
PG30 -24145.276968  -1268.065757  11302.638420   -404.011260
PG31  25899.275313  -6774.638317  -1650.735691   -107.897759
PG32  15395.578285    171.405227 -21525.984156     21.733213
PJ01 -25653.721691  24459.119580  27798.572792   -358.664143
PJ02 -27706.864639  15000.176493 -23530.935363      4.119692
PJ03 -26234.548213  31999.344327  -3554.756537     -2.316683
PR01   3712.263058 -17339.968135 -18337.757770     76.943914
PR02  -7345.883888 -24392.335711    429.176220    472.326630
PR03 -12615.017245 -14869.496242  16461.658610     33.084420
PR04 -10484.823392   2774.985034  23118.019995     79.594108
PR05  -2666.146630  18960.526902  16880.423810     68.839031
PR07  12629.782311  14444.556605 -16791.494441    -42.569182
PR08  10556.461841  -2838.295973 -22988.908917    -58.176749
PR09  10261.047709  12302.555249 -19813.552829    -15.206721
PR11  23020.000782   -252.300211  10982.381003      1.907023
PR12   9016.883796  -8772.920861  22214.146179    215.727495
PR13  -9817.388569 -12060.129250  20197.382011    -52.549899
PR14 -23361.191549  -8361.782857   5947.529429     62.435545
PR15 -22858.609720    169.927182 -11300.768337    104.704313
PR16  -7697.355972   9516.547126 -22388.624358    -13.022837
PR17 -11401.378341  -2918.012427 -22616.909988    411.174585
PR18 -18884.084721  11212.742561 -13010.865296     71.084634
PR19 -17149.241290  18687.576052   2730.669141   -137.280216
PR20  -3742.862995  15915.448387  19606.789699    -46.060961
PR21  12159.876880   1846.469065  22351.514763   -197.225115
PR22  19017.648731 -11817.354435  12109.886745   -104.620278
PR24   2608.701249 -15859.052554 -19791.767892     36.465511
EOF
